[{"OBJECT_NAME":"STARLINK-4360","OBJECT_ID":"2022-099T","EPOCH":"2026-03-09T21:25:07.915872","MEAN_MOTION":15.01254837,"ECCENTRICITY":2.719e-5,"INCLINATION":97.6052,"RA_OF_ASC_NODE":190.4373,"ARG_OF_PERICENTER":3.0306,"MEAN_ANOMALY":357.0919,"EPHEMERIS_TYPE":0,"CLASSIFICATION_TYPE":"U","NORAD_CAT_ID":53482,"ELEMENT_SET_NO":999,"REV_AT_EPOCH":19601,"BSTAR":7.3224794e-5,"MEAN_MOTION_DOT":8.82e-6,"MEAN_MOTION_DDOT":0},{"OBJECT_NAME":"SL-14 R\/B","OBJECT_ID":"1986-006B","EPOCH":"2026-03-09T22:10:50.144736","MEAN_MOTION":14.86815194,"ECCENTRICITY":0.00750516,"INCLINATION":82.5234,"RA_OF_ASC_NODE":259.5165,"ARG_OF_PERICENTER":271.9927,"MEAN_ANOMALY":87.2696,"EPHEMERIS_TYPE":0,"CLASSIFICATION_TYPE":"U","NORAD_CAT_ID":16496,"ELEMENT_SET_NO":999,"REV_AT_EPOCH":14924,"BSTAR":8.3491519e-5,"MEAN_MOTION_DOT":8.08e-6,"MEAN_MOTION_DDOT":0}]
